INTELSAT 902 (IS-902)   
1 26900U 01039A   26162.54195067 -.00000270  00000+0  00000+0 0  9992
2 26900   6.1038  71.8523 0004503   4.8242 328.2062  1.00272036 90637
INTELSAT 904 (IS-904)   
1 27380U 02007A   26162.43088535 -.00000213  00000+0  00000+0 0  9997
2 27380   6.9050  69.2520 0006582   2.4614 311.6923  1.00272051 51700
DIRECTV 5 (TEMPO 1)     
1 27426U 02023A   26162.39905993 -.00000043  00000+0  00000+0 0  9998
2 27426   4.8622  75.3806 0003256  17.0700 200.8526  1.00271434 88062
INTELSAT 905 (IS-905)   
1 27438U 02027A   26162.51202027  .00000107  00000+0  00000+0 0  9997
2 27438   6.7387  69.8665 0003855  17.4003 219.6999  1.00271458 51305
GALAXY 3C (G-3C)        
1 27445U 02030A   26162.39350561 -.00000137  00000+0  00000+0 0  9996
2 27445   3.7154  78.0524 0001652  33.9571 194.5435  1.00271184 46434
INTELSAT 906 (IS-906)   
1 27513U 02041A   26162.20813823  .00000027  00000+0  00000+0 0  9996
2 27513   5.7882  72.9953 0004658   0.9207 324.6993  1.00271732 86964
GALAXY 13 (HORIZONS-1)  
1 27954U 03044A   26162.59344057  .00000149  00000+0  00000+0 0  9994
2 27954   1.4055  83.9297 0002128 354.5363 245.1250  1.00274716 46517
INTELSAT 10-02          
1 28358U 04022A   26162.26652380  .00000006  00000+0  00000+0 0  9997
2 28358   0.0126 323.5521 0000286 194.0839 196.9216  1.00272584 80492
DIRECTV 8               
1 28659U 05019A   26162.31445398  .00000018  00000+0  00000+0 0  9996
2 28659   0.0155  49.9980 0002855  34.0552 169.7663  1.00271796 77017
GALAXY 28 (G-28)        
1 28702U 05022A   26162.33262204 -.00000184  00000+0  00000+0 0  9999
2 28702   3.2843  79.0043 0002857 358.2863 275.0316  1.00271841 51915
GALAXY 16 (G-16)        
1 29236U 06023A   26162.53224396 -.00000110  00000+0  00000+0 0  9995
2 29236   0.0457 150.2439 0002434 295.6160 266.6275  1.00270889 72914
DIRECTV 9S              
1 29494U 06043A   26162.53181062 -.00000098  00000+0  00000+0 0  9990
2 29494   2.4054  80.9675 0004908   9.4641 259.7099  1.00271014 51323
GALAXY 17 (G-17)        
1 31307U 07016B   26162.53501730 -.00000191  00000+0  00000+0 0  9999
2 31307   2.9572  79.9692 0004778  19.3531 268.1687  1.00270469 69744
INTELSAT 11 (IS-11)     
1 32253U 07044B   26162.51049053 -.00000266  00000+0  00000+0 0  9997
2 32253   3.5500  78.7361 0002062  88.2135  67.4745  0.99053092 68395
HORIZONS-2              
1 32388U 07063B   26162.53727065 -.00000238  00000+0  00000+0 0  9994
2 32388   2.5868  80.6926 0003815 358.2929 300.5423  1.00270448 67759
DIRECTV 11              
1 32729U 08013A   26162.53224396 -.00000109  00000+0  00000+0 0  9995
2 32729   0.0110 241.9335 0000374 148.9362 321.4389  1.00272580 45533
GALAXY 18 (G-18)        
1 32951U 08024A   26162.59881392  .00000042  00000+0  00000+0 0  9990
2 32951   0.0010   7.3900 0002600  72.1804 272.9407  1.00269951 45791
INTELSAT 25 (IS-25)     
1 33153U 08034A   26162.58085852 -.00000268  00000+0  00000+0 0  9993
2 33153   2.6945  80.4359 0003040  55.5657 119.6210  0.99037452 65631
GALAXY 19 (G-19)        
1 33376U 08045A   26162.53267729 -.00000122  00000+0  00000+0 0  9991
2 33376   0.0161 301.5791 0002590 139.6823 273.3876  1.00270707 64848
FM-5                    
1 35493U 09034A   26162.53484397 -.00000183  00000+0  00000+0 0  9991
2 35493   0.0133 300.8803 0000670 345.3547  80.0389  1.00270155 46581
INTELSAT 14 (IS-14)     
1 36097U 09064A   26162.11521375 -.00000256  00000+0  00000+0 0  9998
2 36097   0.0174 357.9227 0002702 100.1504 157.8674  1.00269507 60549
INTELSAT 15 (IS-15)     
1 36106U 09067A   26161.99841277 -.00000168  00000+0  00000+0 0  9995
2 36106   0.0159   1.4448 0002160  83.3005 259.1829  1.00270566 41167
DIRECTV 12              
1 36131U 09075A   26162.39350561 -.00000086  00000+0  00000+0 0  9997
2 36131   0.0453 150.1436 0000306 263.7314 244.8030  1.00271216 46497
INTELSAT 16 (IS-16)     
1 36397U 10006A   26162.53675065 -.00000228  00000+0  00000+0 0  9990
2 36397   0.0095 321.8828 0001902 135.4071 279.6284  1.00271512 59594
XM-5                    
1 37185U 10053A   26162.60037394 -.00000006  00000+0  00000+0 0  9997
2 37185   0.0626 274.0505 0002924 282.8150 164.0155  1.00272357 57423
INTELSAT 17 (IS-17)     
1 37238U 10065B   26162.56498611  .00000015  00000+0  00000+0 0  9996
2 37238   0.0126 119.6277 0002572 326.5623  83.1101  1.00270693 53190
INTELSAT 28 (IS-28)     
1 37392U 11016A   26162.40186877 -.00000209  00000+0  00000+0 0  9991
2 37392   1.7905  82.6896 0003676   2.7634 287.2654  1.00271318 53220
INTELSAT 18 (IS-18)     
1 37834U 11056A   26162.08848708  .00000070  00000+0  00000+0 0  9993
2 37834   0.0169 290.8713 0002073 165.9275  14.5048  1.00271744 53758
INTELSAT 22 (IS-22)     
1 38098U 12011A   26162.49018247  .00000000  00000+0  00000+0 0  9993
2 38098   0.0315  39.8979 0001509  52.9991  55.4782  1.00271035  7135
INTELSAT 19 (IS-19)     
1 38356U 12030A   26162.29959334 -.00000039  00000+0  00000+0 0  9993
2 38356   0.0178 339.9785 0002947 108.8520  84.6786  1.00271824 50394
INTELSAT 20 (IS-20)     
1 38740U 12043A   26162.49018247 -.00000008  00000+0  00000+0 0  9991
2 38740   0.0095  74.8969 0001875 102.8792 327.0419  1.00271297 50696
